SES-10                  
1 42432U 17017A   18281.13938055 -.00000298  00000-0  00000+0 0  9994
2 42432   0.0145 213.4675 0002724 343.2777 163.2457  1.00269803  5612
CHINASAT 16 (SJ-13)     
1 42662U 17018A   18279.65044290 -.00000378  00000-0  00000+0 0  9992
2 42662   0.0703  92.0828 0007615 138.4025 129.4638  1.00270751  5565
KOREASAT 7              
1 42691U 17023A   18280.63294983 -.00000387  00000-0  00000+0 0  9996
2 42691   0.0471  88.9654 0001498  92.2961 178.7542  1.00272367  5273
SGDC                    
1 42692U 17023B   18280.16413060 -.00000275  00000-0  00000-0 0  9991
2 42692   0.0402  52.7691 0002053 137.6047 169.6379  1.00272675  5252
GSAT-9                  
1 42695U 17024A   18280.68437288 -.00000312  00000-0  00000+0 0  9991
2 42695   0.0972 278.2399 0001880 262.5984 179.1772  1.00269684  5262
INMARSAT 5-F4           
1 42698U 17025A   18280.92357437  .00000049  00000-0  00000+0 0  9995
2 42698   0.0555 104.7360 0000566 219.8241  35.4523  1.00271630  5109
SES-15                  
1 42709U 17026A   18281.31180786  .00000035  00000-0  00000+0 0  9999
2 42709   0.0221 195.7853 0000508  32.5390 131.6713  1.00270171  6021
VIASAT-2                
1 42740U 17029A   18281.14776282 -.00000290  00000-0  00000+0 0  9994
2 42740   0.0222 197.1481 0000185 132.5342  30.3166  1.00269625  5027
EUTELSAT 172B           
1 42741U 17029B   18280.47748891 -.00000031  00000-0  00000-0 0  9999
2 42741   0.0114 237.1408 0002563  38.1020  84.7441  1.00271609  5550
GSAT-19                 
1 42747U 17031A   18280.82142998  .00000099  00000-0  00000-0 0  9996
2 42747   0.0538 106.9966 0002439  30.7361 222.3021  1.00270741  4960
ECHOSTAR 21             
1 42749U 17032A   18280.80458047  .00000029  00000-0  00000+0 0  9994
2 42749   6.6829 316.4471 0002102 237.3655 122.4770  1.00271498  4954
CHINASAT 9A (ZX 9A)     
1 42763U 17035A   18280.81715924 -.00000338  00000-0  00000+0 0  9998
2 42763   0.0404 260.2022 0002513 225.3423 286.4705  1.00268191  5485
BULGARIASAT-1           
1 42801U 17038A   18279.95149689 -.00000015  00000-0  00000+0 0  9998
2 42801   0.0312 109.3758 0002728  87.7592 162.8718  1.00271400  4735
HELLAS-SAT 3            
1 42814U 17040A   18280.84603371  .00000127  00000-0  00000-0 0  9992
2 42814   0.0871  51.0168 0000687 105.5204 203.4820  1.00273542  4722
GSAT-17                 
1 42815U 17040B   18280.69496574 -.00000283  00000-0  00000-0 0  9995
2 42815   0.0609 101.0754 0004306 156.2110 102.6818  1.00270668  4644
INTELSAT 35E (IS-35E)   
1 42818U 17041A   18280.05232460 -.00000264  00000-0  00000+0 0  9999
2 42818   0.0277 238.2246 0001721 339.2387 142.5407  1.00270799  4668
COSMOS 2520             
1 42907U 17046A   18281.19491116  .00000112  00000-0  00000+0 0  9995
2 42907   0.0265 109.7450 0002789 204.1666 178.0550  1.00273338  4225
TDRS 13                 
1 42915U 17047A   18281.00885459 -.00000320  00000-0  00000+0 0  9994
2 42915   6.4876 331.0684 0025895   6.7931 353.1328  1.00274288  4218
QZS-3                   
1 42917U 17048A   18280.60215194 -.00000374  00000-0  00000-0 0  9995
2 42917   0.0480 167.9735 0001700  42.2997 149.7330  1.00273943  4084
AMAZONAS 5              
1 42934U 17053A   18281.12300990 -.00000308  00000-0  00000+0 0  9993
2 42934   0.0401 315.2035 0002486 277.1388 127.6513  1.00271246  3960
ASIASAT 9               
1 42942U 17057A   18280.92308440 -.00000385  00000-0  00000+0 0  9996
2 42942   0.0051 223.5305 0002196 342.3289 265.0845  1.00271292  3779
INTELSAT 37E (IS-37E)   
1 42950U 17059A   18280.00663668 -.00000166  00000-0  00000-0 0  9990
2 42950   0.0128 206.3228 0002584 357.2561 156.4252  1.00270969  3882
BSAT-4A                 
1 42951U 17059B   18280.64980404 -.00000376  00000-0  00000-0 0  9994
2 42951   0.0823  56.4755 0001273  34.9989 268.5561  1.00272624  3643
SES-11 (ECHOSTAR 105)   
1 42967U 17063A   18281.24474812 -.00000114  00000-0  00000+0 0  9993
2 42967   0.0227 242.5110 0003032 321.6337 155.8573  1.00271045  3657
KOREASAT 5A             
1 42984U 17067A   18280.64061418 -.00000384  00000-0  00000-0 0  9993
2 42984   0.0095 169.6027 0001399 359.9465 190.4696  1.00272886  3368
ALCOMSAT 1              
1 43039U 17078A   18281.02271456 -.00000211  00000-0  00000+0 0  9993
2 43039   0.0256  75.3994 0003452  92.4543 192.1707  1.00272368  3124
GOES-S                  
1 43226U 18022A   18281.20195836 -.00000208  00000-0  00000+0 0  9994
2 43226   0.0424   0.6781 0000851 256.6915 102.6372  1.00271839  2272
HISPASAT 30W-6          
1 43228U 18023A   18281.03713413 -.00000241  00000-0  00000+0 0  9992
2 43228   0.0473  40.8409 0002392 139.6964 179.4786  1.00271658  2334
SUPERBIRD 8             
1 43271U 18033A   18281.50252485 -.00000117  00000-0  00000+0 0  9992
2 43271   0.0350 105.7451 0001225  85.2190 169.0496  1.00271459  1909
HYLAS 4                 
1 43272U 18033B   18281.04684147 -.00000259  00000-0  00000+0 0  9993
2 43272   0.0592 122.8931 0004212  56.8574 180.2658  1.00271061  1926
BANGABANDHUSAT-1        
1 43463U 18044A   18280.62410425 -.00000388  00000-0  00000+0 0  9999
2 43463   0.0155 249.9262 0002090 307.6439 162.4386  1.00271119  1564
FENGYUN 2H              
1 43491U 18050A   18280.91453529 -.00000157  00000-0  00000-0 0  9996
2 43491   2.0839 284.9617 0004098 257.4024 242.5435  1.00270064  1340
TELSTAR 19V             
1 43562U 18059A   18280.13128489 -.00000306  00000-0  00000+0 0  9997
2 43562   0.0173 153.8908 0003140  42.7290 163.3858  1.00270925   997
